NORAD_CAT_ID,OBJECT_NAME,OBJECT_TYPE,EPOCH,MEAN_MOTION,ECCENTRICITY,INCLINATION,RA_OF_ASC_NODE,ARG_OF_PERICENTER,MEAN_ANOMALY,BSTAR,MEAN_MOTION_DOT,MEAN_MOTION_DDOT,TLE_LINE0,TLE_LINE1,TLE_LINE2,SEMIMAJOR_AXIS,PERIOD,APOGEE,PERIGEE,DECAYED
51963.0,STARLINK-3675,PAYLOAD,2023-04-13 17:25:31,15.08030722,0.0001476,53.168,112.0989,97.4846,262.6313,0.00016201,2.237e-05,0.0,0 STARLINK-3675,1 51963U 22025H   23103.72605536  .00002237  00000-0  16201-3 0  9995,2 51963  53.1680 112.0989 0001476  97.4846 262.6313 15.08030722 62116,6920.355,95.489,543.242,541.199,0.0
51963.0,STARLINK-3675,PAYLOAD,2023-04-14 07:44:26,15.08031679,0.0001405,53.1657,109.4204,87.8909,272.2243,4.5199e-05,4.18e-06,0.0,0 STARLINK-3675,1 51963U 22025H   23104.32253395  .00000418  00000-0  45199-4 0  9992,2 51963  53.1657 109.4204 0001405  87.8909 272.2243 15.08031679 61115,6920.352,95.489,543.19,541.245,0.0
51963.0,STARLINK-3675,PAYLOAD,2023-04-15 07:35:59,15.08031894,0.0001385,53.1632,104.9596,76.245,283.8696,0.00019057,2.682e-05,0.0,0 STARLINK-3675,1 51963U 22025H   23105.31665564  .00002682  00000-0  19057-3 0  9995,2 51963  53.1632 104.9596 0001385  76.2450 283.8696 15.08031894 61267,6920.352,95.489,543.175,541.258,0.0
51963.0,STARLINK-3675,PAYLOAD,2023-04-15 17:08:35,15.08038638,0.0001317,53.1629,103.1751,83.3362,276.7779,3.1825e-05,2.1e-06,0.0,0 STARLINK-3675,1 51963U 22025H   23105.71430517  .00000210  00000-0  31825-4 0  9990,2 51963  53.1629 103.1751 0001317  83.3362 276.7779 15.08038638 61326,6920.331,95.488,543.107,541.285,0.0
51963.0,STARLINK-3675,PAYLOAD,2023-04-16 05:52:05,15.08033177,0.0001002,53.1614,100.7939,89.6312,270.4794,5.2995e-05,5.4e-06,0.0,0 STARLINK-3675,1 51963U 22025H   23106.24450842  .00000540  00000-0  52995-4 0  9999,2 51963  53.1614 100.7939 0001002  89.6312 270.4794 15.08033177 62496,6920.348,95.489,542.906,541.519,0.0
51963.0,STARLINK-3675,PAYLOAD,2023-04-16 17:00:07,15.08046949,0.0001182,53.1605,98.7082,111.5099,248.6018,8.3201e-05,1.01e-05,0.0,0 STARLINK-3675,1 51963U 22025H   23106.70842205  .00001010  00000-0  83201-4 0  9995,2 51963  53.1605  98.7082 0001182 111.5099 248.6018 15.08046949 62562,6920.305,95.488,542.988,541.353,0.0
51963.0,STARLINK-3675,PAYLOAD,2023-04-17 08:54:29,15.08044767,0.0001165,53.1581,95.7337,94.3588,265.7536,7.1441e-05,8.27e-06,0.0,0 STARLINK-3675,1 51963U 22025H   23107.37117247  .00000827  00000-0  71441-4 0  9998,2 51963  53.1581  95.7337 0001165  94.3588 265.7536 15.08044767 61578,6920.312,95.488,542.983,541.371,0.0
51963.0,STARLINK-3675,PAYLOAD,2023-04-18 05:35:09,15.08039302,0.000125,53.1544,91.8655,85.1235,274.9899,1.0911e-05,-1.16e-06,0.0,0 STARLINK-3675,1 51963U 22025H   23108.23275400 -.00000116  00000-0  10911-4 0  9997,2 51963  53.1544  91.8655 0001250  85.1235 274.9899 15.08039302 62797,6920.329,95.488,543.059,541.329,0.0
51963.0,STARLINK-3675,PAYLOAD,2023-04-18 10:21:28,15.08039154,0.0001264,53.1547,90.9725,88.994,271.1196,4.6101e-05,4.32e-06,0.0,0 STARLINK-3675,1 51963U 22025H   23108.43157759  .00000432  00000-0  46101-4 0  9995,2 51963  53.1547  90.9725 0001264  88.9940 271.1196 15.08039154 61734,6920.329,95.488,543.069,541.32,0.0
51963.0,STARLINK-3675,PAYLOAD,2023-04-19 08:37:34,15.08044664,0.0001475,53.1536,86.8069,95.401,264.7149,0.00012906,1.725e-05,0.0,0 STARLINK-3675,1 51963U 22025H   23109.35942311  .00001725  00000-0  12906-3 0  9994,2 51963  53.1536  86.8069 0001475  95.4010 264.7149 15.08044664 61875,6920.312,95.488,543.198,541.157,0.0
51963.0,STARLINK-3675,PAYLOAD,2023-04-20 05:18:14,15.08034369,0.0001378,53.1512,82.9359,85.5509,274.564,7.911e-05,9.46e-06,0.0,0 STARLINK-3675,1 51963U 22025H   23110.22100604  .00000946  00000-0  79110-4 0  9998,2 51963  53.1512  82.9359 0001378  85.5509 274.5640 15.08034369 63095,6920.344,95.489,543.163,541.255,0.0
51963.0,STARLINK-3675,PAYLOAD,2023-04-20 08:29:07,15.08028594,0.0001282,53.1497,82.3426,80.5772,279.5364,6.8703e-05,7.84e-06,0.0,0 STARLINK-3675,1 51963U 22025H   23110.35355995  .00000784  00000-0  68703-4 0  9993,2 51963  53.1497  82.3426 0001282  80.5772 279.5364 15.08028594 62020,6920.362,95.489,543.114,541.339,0.0
51963.0,STARLINK-3675,PAYLOAD,2023-04-20 14:50:52,15.08028777,0.0001246,53.1498,81.152,115.0293,245.0828,-2.6034e-05,-6.91e-06,0.0,0 STARLINK-3675,1 51963U 22025H   23110.61866211 -.00000691  00000-0 -26034-4 0  9990,2 51963  53.1498  81.1520 0001246 115.0293 245.0828 15.08028777 62065,6920.361,95.489,543.088,541.364,0.0
51963.0,STARLINK-3675,PAYLOAD,2023-04-21 09:56:05,15.08044895,0.0002088,53.1472,77.5781,67.7811,292.3402,6.8554e-05,7.82e-06,0.0,0 STARLINK-3675,1 51963U 22025H   23111.41395636  .00000782  00000-0  68554-4 0  9999,2 51963  53.1472  77.5781 0002088  67.7811 292.3402 15.08044895 63275,6920.312,95.488,543.622,540.732,0.0
51963.0,STARLINK-3675,PAYLOAD,2023-04-23 06:28:18,15.08028771,0.0001088,53.1411,69.2459,68.3334,291.7772,1.4292e-05,-6.3e-07,0.0,0 STARLINK-3675,1 51963U 22025H   23113.26966421 -.00000063  00000-0  14292-4 0  9993,2 51963  53.1411  69.2459 0001088  68.3334 291.7772 15.08028771 63553,6920.361,95.489,542.979,541.473,0.0
51963.0,STARLINK-3675,PAYLOAD,2023-04-24 06:19:49,15.08056189,0.0001218,53.1378,64.7775,106.6183,253.4941,0.00016125,2.227e-05,0.0,0 STARLINK-3675,1 51963U 22025H   23114.26376280  .00002227  00000-0  16125-3 0  9991,2 51963  53.1378  64.7775 0001218 106.6183 253.4941 15.08056189 63703,6920.277,95.487,542.985,541.299,0.0
51963.0,STARLINK-3675,PAYLOAD,2023-04-25 03:00:33,15.07992689,0.0001619,53.1364,60.9065,122.99,237.1246,-0.0003686,-6.014e-05,0.0,0 STARLINK-3675,1 51963U 22025H   23115.12538770 -.00006014  00000-0 -36860-3 0  9999,2 51963  53.1364  60.9065 0001619 122.9900 237.1246 15.07992689 62744,6920.471,95.491,543.457,541.216,0.0
51963.0,STARLINK-3675,PAYLOAD,2023-04-26 02:52:04,15.08031568,0.0001908,53.1344,56.4377,117.0836,243.035,-3.2679e-05,-7.95e-06,0.0,0 STARLINK-3675,1 51963U 22025H   23116.11949757 -.00000795  00000-0 -32679-4 0  9995,2 51963  53.1344  56.4377 0001908 117.0836 243.0350 15.08031568 63982,6920.353,95.489,543.538,540.897,0.0
51963.0,STARLINK-3675,PAYLOAD,2023-04-26 06:02:56,15.08037966,0.0001672,53.1351,55.8443,110.4223,249.6948,-1.7935e-05,-5.65e-06,0.0,0 STARLINK-3675,1 51963U 22025H   23116.25204434 -.00000565  00000-0 -17935-4 0  9999,2 51963  53.1351  55.8443 0001672 110.4223 249.6948 15.08037966 62917,6920.333,95.488,543.355,541.041,0.0
51963.0,STARLINK-3675,PAYLOAD,2023-04-27 02:43:35,15.08023598,0.0001477,53.1327,51.9773,117.8648,242.2493,0.00053189,8.003e-05,0.0,0 STARLINK-3675,1 51963U 22025H   23117.11360569  .00008003  00000-0  53189-3 0  9990,2 51963  53.1327  51.9773 0001477 117.8648 242.2493 15.08023598 64134,6920.377,95.489,543.264,541.22,0.0
51963.0,STARLINK-3675,PAYLOAD,2023-04-28 05:46:01,15.08041311,0.0001616,53.1301,46.9143,123.2956,236.819,-4.6145e-05,-1.004e-05,0.0,0 STARLINK-3675,1 51963U 22025H   23118.24028988 -.00001004  00000-0 -46145-4 0  9992,2 51963  53.1301  46.9143 0001616 123.2956 236.8190 15.08041311 64304,6920.323,95.488,543.306,541.069,0.0
51963.0,STARLINK-3675,PAYLOAD,2023-04-28 12:07:45,15.08041576,0.0001535,53.1307,45.7242,116.6983,243.4165,-4.2556e-05,-9.49e-06,0.0,0 STARLINK-3675,1 51963U 22025H   23118.50538840 -.00000949  00000-0 -42556-4 0  9993,2 51963  53.1307  45.7242 0001535 116.6983 243.4165 15.08041576 63255,6920.322,95.488,543.249,541.125,0.0
51963.0,STARLINK-3675,PAYLOAD,2023-04-29 04:02:06,15.08042104,0.0001435,53.1294,42.7453,111.8606,248.2537,-3.6091e-05,-8.48e-06,0.0,0 STARLINK-3675,1 51963U 22025H   23119.16813378 -.00000848  00000-0 -36091-4 0  9993,2 51963  53.1294  42.7453 0001435 111.8606 248.2537 15.08042104 63354,6920.32,95.488,543.178,541.192,0.0
51963.0,STARLINK-3675,PAYLOAD,2023-04-29 18:21:02,15.08025165,0.0001251,53.1294,40.0655,104.5504,255.5626,0.00015512,2.13e-05,0.0,0 STARLINK-3675,1 51963U 22025H   23119.76460889  .00002130  00000-0  15512-3 0  9992,2 51963  53.1294  40.0655 0001251 104.5504 255.5626 15.08025165 64530,6920.372,95.489,543.103,541.371,0.0
51963.0,STARLINK-3675,PAYLOAD,2023-04-30 02:18:12,15.08047015,0.0001275,53.1291,38.5771,102.7792,257.3341,-3.5897e-05,-8.45e-06,0.0,0 STARLINK-3675,1 51963U 22025H   23120.09597747 -.00000845  00000-0 -35897-4 0  9996,2 51963  53.1291  38.5771 0001275 102.7792 257.3341 15.08047015 64580,6920.305,95.488,543.053,541.288,0.0
51963.0,STARLINK-3675,PAYLOAD,2023-04-30 18:12:34,15.08033581,0.0001334,53.1283,35.6001,103.0886,257.0253,2.0498e-05,3.3e-07,0.0,0 STARLINK-3675,1 51963U 22025H   23120.75873455  .00000033  00000-0  20498-4 0  9990,2 51963  53.1283  35.6001 0001334 103.0886 257.0253 15.08033581 64682,6920.346,95.489,543.135,541.288,0.0
51963.0,STARLINK-3675,PAYLOAD,2023-05-01 03:45:11,15.08038977,0.0001427,53.1278,33.8129,98.1179,261.9973,6.6004e-05,7.42e-06,0.0,0 STARLINK-3675,1 51963U 22025H   23121.15637994  .00000742  00000-0  66004-4 0  9991,2 51963  53.1278  33.8129 0001427  98.1179 261.9973 15.08038977 64743,6920.33,95.488,543.182,541.207,0.0
51963.0,STARLINK-3675,PAYLOAD,2023-05-01 21:14:58,15.08042103,0.000142,53.1275,30.5372,101.7623,258.3527,6.9252e-05,7.93e-06,0.0,0 STARLINK-3675,1 51963U 22025H   23121.88540022  .00000793  00000-0  69252-4 0  9990,2 51963  53.1275  30.5372 0001420 101.7623 258.3527 15.08042103 63764,6920.32,95.488,543.168,541.203,0.0
51963.0,STARLINK-3675,PAYLOAD,2023-05-02 03:36:43,15.08041061,0.0001157,53.1261,29.345,98.0059,262.1063,3.4609e-05,2.53e-06,0.0,0 STARLINK-3675,1 51963U 22025H   23122.15050127  .00000253  00000-0  34609-4 0  9992,2 51963  53.1261  29.3450 0001157  98.0059 262.1063 15.08041061 63805,6920.324,95.488,542.989,541.388,0.0
51963.0,STARLINK-3675,PAYLOAD,2023-05-02 21:06:31,15.08033824,0.0001122,53.1251,26.0679,83.2965,276.8153,-2.1382e-05,-6.19e-06,0.0,0 STARLINK-3675,1 51963U 22025H   23122.87953332 -.00000619  00000-0 -21382-4 0  9993,2 51963  53.1251  26.0679 0001122  83.2965 276.8153 15.08033824 63917,6920.346,95.489,542.987,541.434,0.0
